[{"OBJECT_NAME":"LEMUR-2-STAR-FOX","OBJECT_ID":"2025-009CR","EPOCH":"2026-03-09T19:30:12.149568","MEAN_MOTION":15.00891969,"ECCENTRICITY":0.00025005,"INCLINATION":97.7038,"RA_OF_ASC_NODE":151.2547,"ARG_OF_PERICENTER":152.191,"MEAN_ANOMALY":207.9448,"EPHEMERIS_TYPE":0,"CLASSIFICATION_TYPE":"U","NORAD_CAT_ID":62696,"ELEMENT_SET_NO":999,"REV_AT_EPOCH":6264,"BSTAR":0.000772765,"MEAN_MOTION_DOT":9.785e-5,"MEAN_MOTION_DDOT":0},{"OBJECT_NAME":"ICEYE-X51","OBJECT_ID":"2025-052AZ","EPOCH":"2026-03-09T22:06:54.407520","MEAN_MOTION":15.00892494,"ECCENTRICITY":0.00020982,"INCLINATION":97.7349,"RA_OF_ASC_NODE":324.3635,"ARG_OF_PERICENTER":65.1031,"MEAN_ANOMALY":295.041,"EPHEMERIS_TYPE":0,"CLASSIFICATION_TYPE":"U","NORAD_CAT_ID":63257,"ELEMENT_SET_NO":999,"REV_AT_EPOCH":5391,"BSTAR":0.00046355347,"MEAN_MOTION_DOT":5.842e-5,"MEAN_MOTION_DDOT":0}]
